NORAD_CAT_ID,OBJECT_NAME,OBJECT_TYPE,EPOCH,MEAN_MOTION,ECCENTRICITY,INCLINATION,RA_OF_ASC_NODE,ARG_OF_PERICENTER,MEAN_ANOMALY,BSTAR,MEAN_MOTION_DOT,MEAN_MOTION_DDOT,TLE_LINE0,TLE_LINE1,TLE_LINE2,SEMIMAJOR_AXIS,PERIOD,APOGEE,PERIGEE,DECAYED
52347.0,STARLINK-3826,PAYLOAD,2023-06-11 01:02:26,15.0883958,0.0001101,53.218,20.1823,84.1492,275.9626,0.000158,2.228e-05,0.0,0 STARLINK-3826,1 52347U 22045S   23162.04336057  .00002228  00000-0  15800-3 0  9997,2 52347  53.2180  20.1823 0001101  84.1492 275.9626 15.08839580 64418,6917.882,95.438,540.508,538.985,0.0
52347.0,STARLINK-3826,PAYLOAD,2023-06-11 07:23:59,15.08840817,9.9e-05,53.2176,18.9922,95.8094,264.3011,-1.189e-05,-4.77e-06,0.0,0 STARLINK-3826,1 52347U 22045S   23162.30832344 -.00000477  00000-0 -11890-4 0  9998,2 52347  53.2176  18.9922 0000990  95.8094 264.3011 15.08840817 64459,6917.878,95.438,540.428,539.058,0.0
52347.0,STARLINK-3826,PAYLOAD,2023-06-11 15:20:54,15.08835385,9.53e-05,53.2178,17.5046,96.526,263.5841,9.6973e-05,1.256e-05,0.0,0 STARLINK-3826,1 52347U 22045S   23162.63952523  .00001256  00000-0  96973-4 0  9995,2 52347  53.2178  17.5046 0000953  96.5260 263.5841 15.08835385 64507,6917.894,95.438,540.419,539.1,0.0
52347.0,STARLINK-3826,PAYLOAD,2023-06-12 07:14:46,15.08842177,0.0001084,53.2187,14.5324,91.3812,268.7305,7.8674e-05,9.65e-06,0.0,0 STARLINK-3826,1 52347U 22045S   23163.30192226  .00000965  00000-0  78674-4 0  9990,2 52347  53.2187  14.5324 0001084  91.3812 268.7305 15.08842177 64605,6917.874,95.437,540.489,538.989,0.0
52347.0,STARLINK-3826,PAYLOAD,2023-06-12 23:08:37,15.08843562,9.52e-05,53.2183,11.5578,85.555,274.5551,7.2972e-05,8.74e-06,0.0,0 STARLINK-3826,1 52347U 22045S   23163.96432126  .00000874  00000-0  72972-4 0  9992,2 52347  53.2183  11.5578 0000952  85.5550 274.5551 15.08843562 64704,6917.87,95.437,540.393,539.076,0.0
52347.0,STARLINK-3826,PAYLOAD,2023-06-13 13:27:06,15.08834571,0.0001106,53.2184,8.8817,89.5504,270.5615,4.4744e-05,4.24e-06,0.0,0 STARLINK-3826,1 52347U 22045S   23164.56048832  .00000424  00000-0  44744-4 0  9993,2 52347  53.2184   8.8817 0001106  89.5504 270.5615 15.08834571 64791,6917.897,95.438,540.527,538.997,0.0
52347.0,STARLINK-3826,PAYLOAD,2023-06-13 19:48:38,15.0883551,0.0001059,53.218,7.6913,99.9655,260.1456,2.0481e-05,3.8e-07,0.0,0 STARLINK-3826,1 52347U 22045S   23164.82544818  .00000038  00000-0  20481-4 0  9990,2 52347  53.2180   7.6913 0001059  99.9655 260.1456 15.08835510 64837,6917.894,95.438,540.492,539.027,0.0
52347.0,STARLINK-3826,PAYLOAD,2023-06-14 08:31:43,15.08842489,0.0001028,53.2176,5.3125,93.8311,266.2799,5.667e-05,6.14e-06,0.0,0 STARLINK-3826,1 52347U 22045S   23165.35536268  .00000614  00000-0  56670-4 0  9998,2 52347  53.2176   5.3125 0001028  93.8311 266.2799 15.08842489 64919,6917.873,95.437,540.449,539.027,0.0
52347.0,STARLINK-3826,PAYLOAD,2023-06-14 19:39:25,15.08844228,9.91e-05,53.2178,3.2321,83.9904,276.1201,9.9573e-05,1.297e-05,0.0,0 STARLINK-3826,1 52347U 22045S   23165.81904104  .00001297  00000-0  99573-4 0  9994,2 52347  53.2178   3.2321 0000991  83.9904 276.1201 15.08844228 64980,6917.867,95.437,540.418,539.047,0.0
52347.0,STARLINK-3826,PAYLOAD,2023-06-15 13:08:40,15.08836149,0.0001009,53.2175,359.9597,90.5989,269.5118,2.8385e-05,1.64e-06,0.0,0 STARLINK-3826,1 52347U 22045S   23166.54768897  .00000164  00000-0  28385-4 0  9997,2 52347  53.2175 359.9597 0001009  90.5989 269.5118 15.08836149 65090,6917.892,95.438,540.455,539.059,0.0
52347.0,STARLINK-3826,PAYLOAD,2023-06-15 17:54:49,15.08839599,9.72e-05,53.2178,359.0684,93.6827,266.4277,6.2924e-05,7.14e-06,0.0,0 STARLINK-3826,1 52347U 22045S   23166.74640582  .00000714  00000-0  62924-4 0  9997,2 52347  53.2178 359.0684 0000972  93.6827 266.4277 15.08839599 65122,6917.882,95.438,540.419,539.074,0.0
52347.0,STARLINK-3826,PAYLOAD,2023-06-16 12:59:27,15.08827064,9.64e-05,53.2179,355.4984,97.9931,262.117,0.0002692,3.998e-05,0.0,0 STARLINK-3826,1 52347U 22045S   23167.54128715  .00003998  00000-0  26920-3 0  9997,2 52347  53.2179 355.4984 0000964  97.9931 262.1170 15.08827064 65242,6917.92,95.438,540.452,539.118,0.0
52347.0,STARLINK-3826,PAYLOAD,2023-06-16 19:20:58,15.08851807,0.0001046,53.2191,354.3137,77.3154,282.7955,0.00013722,1.897e-05,0.0,0 STARLINK-3826,1 52347U 22045S   23167.80623596  .00001897  00000-0  13722-3 0  9995,2 52347  53.2191 354.3137 0001046  77.3154 282.7955 15.08851807 65280,6917.844,95.437,540.433,538.986,0.0
52347.0,STARLINK-3826,PAYLOAD,2023-06-17 04:53:18,15.0883743,0.0001147,53.2183,352.5251,81.8195,278.2927,3.9928e-05,3.48e-06,0.0,0 STARLINK-3826,1 52347U 22045S   23168.20368648  .00000348  00000-0  39928-4 0  9991,2 52347  53.2183 352.5251 0001147  81.8195 278.2927 15.08837430 65347,6917.888,95.438,540.547,538.96,0.0
52347.0,STARLINK-3826,PAYLOAD,2023-06-17 12:50:15,15.08824709,0.0001172,53.2181,351.0396,101.9476,258.1647,-6.4461e-05,-1.313e-05,0.0,0 STARLINK-3826,1 52347U 22045S   23168.53489939 -.00001313  00000-0 -64461-4 0  9999,2 52347  53.2181 351.0396 0001172 101.9476 258.1647 15.08824709 65399,6917.927,95.439,540.603,538.981,0.0
52347.0,STARLINK-3826,PAYLOAD,2023-06-17 19:11:47,15.08828802,0.0001358,53.2182,349.8502,94.2512,265.8636,-2.9904e-05,-7.64e-06,0.0,0 STARLINK-3826,1 52347U 22045S   23168.79985803 -.00000764  00000-0 -29904-4 0  9990,2 52347  53.2182 349.8502 0001358  94.2512 265.8636 15.08828802 65431,6917.915,95.438,540.719,538.84,0.0
52347.0,STARLINK-3826,PAYLOAD,2023-06-18 04:44:06,15.08834558,0.0001104,53.2192,348.0681,97.9004,262.2113,6.8154e-06,-1.79e-06,0.0,0 STARLINK-3826,1 52347U 22045S   23169.19729619 -.00000179  00000-0  68154-5 0  9996,2 52347  53.2192 348.0681 0001104  97.9004 262.2113 15.08834558 65498,6917.897,95.438,540.526,538.998,0.0
52347.0,STARLINK-3826,PAYLOAD,2023-06-18 12:41:01,15.08840623,0.0001029,53.2185,346.5805,91.2498,268.8612,0.00010454,1.376e-05,0.0,0 STARLINK-3826,1 52347U 22045S   23169.52849150  .00001376  00000-0  10454-3 0  9993,2 52347  53.2185 346.5805 0001029  91.2498 268.8612 15.08840623 65543,6917.878,95.438,540.455,539.032,0.0
52347.0,STARLINK-3826,PAYLOAD,2023-06-18 19:02:33,15.08847745,0.0001004,53.2179,345.3913,92.0377,268.073,0.00013427,1.85e-05,0.0,0 STARLINK-3826,1 52347U 22045S   23169.79344668  .00001850  00000-0  13427-3 0  9996,2 52347  53.2179 345.3913 0001004  92.0377 268.0730 15.08847745 65580,6917.857,95.437,540.416,539.027,0.0
52347.0,STARLINK-3826,PAYLOAD,2023-06-19 10:56:25,15.0884324,0.0001045,53.218,342.4181,96.3305,263.7806,0.00018056,2.587e-05,0.0,0 STARLINK-3826,1 52347U 22045S   23170.45585055  .00002587  00000-0  18056-3 0  9999,2 52347  53.2180 342.4181 0001045  96.3305 263.7806 15.08843240 65683,6917.87,95.437,540.458,539.013,0.0
52347.0,STARLINK-3826,PAYLOAD,2023-06-19 12:31:48,15.08843911,0.0001004,53.2177,342.1207,95.3382,264.7724,0.00021298,3.104e-05,0.0,0 STARLINK-3826,1 52347U 22045S   23170.52209054  .00003104  00000-0  21298-3 0  9997,2 52347  53.2177 342.1207 0001004  95.3382 264.7724 15.08843911 65690,6917.868,95.437,540.428,539.039,0.0
52347.0,STARLINK-3826,PAYLOAD,2023-06-20 12:22:35,15.08842636,0.0001213,53.2179,337.662,64.7174,295.3944,9.572e-05,1.236e-05,0.0,0 STARLINK-3826,1 52347U 22045S   23171.51569160  .00001236  00000-0  95720-4 0  9990,2 52347  53.2179 337.6620 0001213  64.7174 295.3944 15.08842636 65845,6917.872,95.437,540.576,538.898,0.0
52347.0,STARLINK-3826,PAYLOAD,2023-06-20 17:08:45,15.08842398,0.0001102,53.218,336.7691,66.301,293.8097,6.5298e-05,7.52e-06,0.0,0 STARLINK-3826,1 52347U 22045S   23171.71441194  .00000752  00000-0  65298-4 0  9997,2 52347  53.2180 336.7691 0001102  66.3010 293.8097 15.08842398 65879,6917.873,95.437,540.5,538.976,0.0
52347.0,STARLINK-3826,PAYLOAD,2023-06-20 18:44:08,15.08843631,0.0001085,53.2182,336.4722,66.4162,293.6944,8.0035e-05,9.86e-06,0.0,0 STARLINK-3826,1 52347U 22045S   23171.78065124  .00000986  00000-0  80035-4 0  9994,2 52347  53.2182 336.4722 0001085  66.4162 293.6944 15.08843631 65883,6917.869,95.437,540.485,538.984,0.0
52347.0,STARLINK-3826,PAYLOAD,2023-06-21 10:37:59,15.08841271,9.91e-05,53.2183,333.4978,75.4032,284.707,0.00012674,1.73e-05,0.0,0 STARLINK-3826,1 52347U 22045S   23172.44305220  .00001730  00000-0  12674-3 0  9993,2 52347  53.2183 333.4978 0000991  75.4032 284.7070 15.08841271 65985,6917.877,95.437,540.427,539.056,0.0
52347.0,STARLINK-3826,PAYLOAD,2023-06-21 16:59:32,15.08843856,9.08e-05,53.2177,332.3074,80.7097,279.3998,0.00013866,1.92e-05,0.0,0 STARLINK-3826,1 52347U 22045S   23172.70801099  .00001920  00000-0  13866-3 0  9992,2 52347  53.2177 332.3074 0000908  80.7097 279.3998 15.08843856 66027,6917.869,95.437,540.362,539.105,0.0
52347.0,STARLINK-3826,PAYLOAD,2023-06-22 10:28:46,15.08839046,0.0001034,53.2164,329.0384,62.9971,297.1127,7.687e-05,9.36e-06,0.0,0 STARLINK-3826,1 52347U 22045S   23173.43665432  .00000936  00000-0  76870-4 0  9993,2 52347  53.2164 329.0384 0001034  62.9971 297.1127 15.08839046 66134,6917.883,95.438,540.464,539.033,0.0
52347.0,STARLINK-3826,PAYLOAD,2023-06-23 16:41:06,15.088406,9.5e-05,53.2174,323.3864,87.469,272.6411,6.3869e-05,7.29e-06,0.0,0 STARLINK-3826,1 52347U 22045S   23174.69521529  .00000729  00000-0  63869-4 0  9994,2 52347  53.2174 323.3864 0000950  87.4690 272.6411 15.08840600 66324,6917.879,95.438,540.401,539.086,0.0
52347.0,STARLINK-3826,PAYLOAD,2023-06-25 02:04:12,15.08838484,9.33e-05,53.217,317.1425,74.3299,285.7796,5.2371e-05,5.46e-06,0.0,0 STARLINK-3826,1 52347U 22045S   23176.08625777  .00000546  00000-0  52371-4 0  9992,2 52347  53.2170 317.1425 0000933  74.3299 285.7796 15.08838484 66536,6917.885,95.438,540.395,539.105,0.0
52347.0,STARLINK-3826,PAYLOAD,2023-06-26 08:16:32,15.0883691,0.0001184,53.2173,311.4928,81.5459,278.5667,-9.6735e-07,-3.03e-06,0.0,0 STARLINK-3826,1 52347U 22045S   23177.34482118 -.00000303  00000-0 -96735-6 0  9999,2 52347  53.2173 311.4928 0001184  81.5459 278.5667 15.08836910 66721,6917.89,95.438,540.574,538.936,0.0
